[
    {
        "id": 1,
        "name_of_ppc": "Parliament of India",
        "pincode": 110001,
        "post_office": "Sansad Marg NA",
        "district": "Central Delhi",
        "collected": false
    },
    {
        "id": 2,
        "name_of_ppc": "Peacock (Philately Logo)",
        "pincode": 110001,
        "post_office": "National Philatelic Museum",
        "district": "Central Delhi",
        "collected": false
    },
    {
        "id": 3,
        "name_of_ppc": "Rashtrapati Bhavan",
        "pincode": 110004,
        "post_office": "Rashtrapati Bhavan SO",
        "district": "Central Delhi",
        "collected": false
    },
    {
        "id": 4,
        "name_of_ppc": "Red Fort",
        "pincode": 110006,
        "post_office": "Red Fort NA",
        "district": "North Delhi",
        "collected": false
    },
    {
        "id": 5,
        "name_of_ppc": "Red Fort",
        "pincode": 110006,
        "post_office": "Philatelic Gallery, Red Fort",
        "district": "North Delhi",
        "collected": false
    },
    {
        "id": 6,
        "name_of_ppc": "Qutub Minar",
        "pincode": 110030,
        "post_office": "Qutub Minar NA",
        "district": "South West Delhi",
        "collected": true
    },
    {
        "id": 7,
        "name_of_ppc": "Zaffargarh Fort",
        "pincode": 126101,
        "post_office": "Kila Zaffargarh BO",
        "district": "Jind",
        "collected": false
    },
    {
        "id": 8,
        "name_of_ppc": "Sri Harmandir Sahib (Golden Temple)",
        "pincode": 143001,
        "post_office": "Amritsar GPO-PB",
        "district": "Amritsar",
        "collected": false
    },
    {
        "id": 9,
        "name_of_ppc": "Rose Flower, Open Hand Monument, Sukhna Lake, Yacht and Shivalik Hills",
        "pincode": 160017,
        "post_office": "Chandigarh GPO-PB",
        "district": "Chandigarh",
        "collected": false
    },
    {
        "id": 10,
        "name_of_ppc": "Himalayan Monal",
        "pincode": 171001,
        "post_office": "Shimla GPO-PB",
        "district": "Shimla",
        "collected": false
    },
    {
        "id": 11,
        "name_of_ppc": "Bhadramukha Shiva",
        "pincode": 171004,
        "post_office": "Ambedkar Chowk SO",
        "district": "Shimla",
        "collected": false
    },
    {
        "id": 12,
        "name_of_ppc": "Tabo Monastery",
        "pincode": 172113,
        "post_office": "Tabo SO",
        "district": "Lahaul and Spiti",
        "collected": false
    },
    {
        "id": 13,
        "name_of_ppc": "Hikkim Post Office",
        "pincode": 172114,
        "post_office": "Hikkim BO",
        "district": "Lahaul and Spiti",
        "collected": false
    },
    {
        "id": 14,
        "name_of_ppc": "Key Monastery",
        "pincode": 172114,
        "post_office": "Kee Gompa BO",
        "district": "Lahaul and Spiti",
        "collected": false
    },
    {
        "id": 15,
        "name_of_ppc": "Chicham Bridge",
        "pincode": 172114,
        "post_office": "Kibber BO",
        "district": "Lahaul and Spiti",
        "collected": false
    },
    {
        "id": 16,
        "name_of_ppc": "Hidimba Devi Temple",
        "pincode": 175131,
        "post_office": "Manali SO",
        "district": "Kullu",
        "collected": false
    },
    {
        "id": 17,
        "name_of_ppc": "Jawalamukhi Temple",
        "pincode": 176031,
        "post_office": "Jawalamukhi SO",
        "district": "Kangra",
        "collected": false
    },
    {
        "id": 18,
        "name_of_ppc": "Himalayas and Paragliding",
        "pincode": 176077,
        "post_office": "Bir SO",
        "district": "Kangra",
        "collected": false
    },
    {
        "id": 19,
        "name_of_ppc": "Dhauladhar Mountains, Kangra Tea & Temple",
        "pincode": 176215,
        "post_office": "Dharamsala HO",
        "district": "Kangra",
        "collected": false
    },
    {
        "id": 20,
        "name_of_ppc": "Himalayas and Mane Prayer Wheel",
        "pincode": 176219,
        "post_office": "Mcleodganj SO",
        "district": "Kangra",
        "collected": false
    },
    {
        "id": 21,
        "name_of_ppc": "Raghunath Mandir",
        "pincode": 180001,
        "post_office": "Raghunath Bazaar SO",
        "district": "Jammu",
        "collected": false
    },
    {
        "id": 22,
        "name_of_ppc": "Vaishno Devi Temple",
        "pincode": 182301,
        "post_office": "Katra SO",
        "district": "Reasi",
        "collected": false
    },
    {
        "id": 23,
        "name_of_ppc": "Dal Lake and Shikara",
        "pincode": 190001,
        "post_office": "Srinagar GPO",
        "district": "Srinagar",
        "collected": false
    },
    {
        "id": 24,
        "name_of_ppc": "Dal Lake and Shikara",
        "pincode": 190001,
        "post_office": "Srinagar GPO",
        "district": "Srinagar",
        "collected": false
    },
    {
        "id": 25,
        "name_of_ppc": "Ghanta Ghar",
        "pincode": 190001,
        "post_office": "Lal Chowk SO",
        "district": "Srinagar",
        "collected": false
    },
    {
        "id": 26,
        "name_of_ppc": "Ghanta Ghar",
        "pincode": 190001,
        "post_office": "Lal Chowk SO",
        "district": "Srinagar",
        "collected": false
    },
    {
        "id": 27,
        "name_of_ppc": "Shikara in Dal Lake",
        "pincode": 190001,
        "post_office": "Nehru Park SO",
        "district": "Srinagar",
        "collected": false
    },
    {
        "id": 28,
        "name_of_ppc": "Kongposh (Saffron)",
        "pincode": 192121,
        "post_office": "Pampore SO",
        "district": "Anantnag",
        "collected": false
    },
    {
        "id": 29,
        "name_of_ppc": "Shri Amarnath Ji",
        "pincode": 192126,
        "post_office": "Pahalgam SO",
        "district": "Anantnag",
        "collected": false
    },
    {
        "id": 30,
        "name_of_ppc": "Gondola Ropeway",
        "pincode": 193403,
        "post_office": "Gulmarg SO",
        "district": "Baramulla",
        "collected": false
    },
    {
        "id": 31,
        "name_of_ppc": "Shanti Stupa",
        "pincode": 194101,
        "post_office": "Leh HO",
        "district": "Leh",
        "collected": false
    },
    {
        "id": 32,
        "name_of_ppc": "Aligarh Lock",
        "pincode": 202001,
        "post_office": "Aligarh HO",
        "district": "Aligarh",
        "collected": false
    },
    {
        "id": 33,
        "name_of_ppc": "First Airmail",
        "pincode": 211001,
        "post_office": "Prayagraj HO",
        "district": "Prayagraj",
        "collected": false
    },
    {
        "id": 34,
        "name_of_ppc": "First Airmail",
        "pincode": 211001,
        "post_office": "Prayagraj HO",
        "district": "Prayagraj",
        "collected": false
    },
    {
        "id": 35,
        "name_of_ppc": "First Airmail",
        "pincode": 211001,
        "post_office": "Prayagraj HO",
        "district": "Prayagraj",
        "collected": false
    },
    {
        "id": 36,
        "name_of_ppc": "Shri Kashi Vishwanath Mandir, Varanasi",
        "pincode": 221001,
        "post_office": "Varanasi HO-PB",
        "district": "Varanasi",
        "collected": false
    },
    {
        "id": 37,
        "name_of_ppc": "Shri Kashi Vishwanath Mandir, Varanasi",
        "pincode": 221001,
        "post_office": "Varanasi HO-PB",
        "district": "Varanasi",
        "collected": false
    },
    {
        "id": 38,
        "name_of_ppc": "Shri Ram Janmbhoomi Temple",
        "pincode": 224001,
        "post_office": "Ayodhya HO",
        "district": "Ayodhya",
        "collected": false
    },
    {
        "id": 39,
        "name_of_ppc": "Shri Ram Janmbhoomi Temple",
        "pincode": 224001,
        "post_office": "Ayodhya HO",
        "district": "Ayodhya",
        "collected": false
    },
    {
        "id": 40,
        "name_of_ppc": "Lucknow GPO Clock Tower",
        "pincode": 226001,
        "post_office": "Lucknow GPO-PB",
        "district": "Lucknow",
        "collected": false
    },
    {
        "id": 41,
        "name_of_ppc": "Rose Flower",
        "pincode": 226001,
        "post_office": "Gokhale Marg SO",
        "district": "Lucknow",
        "collected": false
    },
    {
        "id": 42,
        "name_of_ppc": "Raj Bhawan, Lucknow",
        "pincode": 226027,
        "post_office": "UP Governor Camp SO",
        "district": "Lucknow",
        "collected": false
    },
    {
        "id": 43,
        "name_of_ppc": "Bareilly Head Post Office Building",
        "pincode": 243001,
        "post_office": "Bareilly HO",
        "district": "Bareilly",
        "collected": false
    },
    {
        "id": 44,
        "name_of_ppc": "Dr. B. R. Ambedkar Uttar Pradesh Police Academy",
        "pincode": 244001,
        "post_office": "PTC Moradabad SO",
        "district": "Moradabad",
        "collected": false
    },
    {
        "id": 49,
        "name_of_ppc": "Spotted Deer-Save Our Heritage, Preserve Wildlife",
        "pincode": 244715,
        "post_office": "Corbett National Park, Dhikala BO",
        "district": "Nainital",
        "collected": false
    },
    {
        "id": 50,
        "name_of_ppc": "Shree Badarinath Temple",
        "pincode": 246422,
        "post_office": "Badrinath Seasonal SO",
        "district": "Chamoli",
        "collected": false
    },
    {
        "id": 51,
        "name_of_ppc": "Himalayas and Badrinath Temple",
        "pincode": 248001,
        "post_office": "Dehradun PB",
        "district": "Dehradun",
        "collected": false
    },
    {
        "id": 52,
        "name_of_ppc": "Himalayas and Badrinath Temple",
        "pincode": 248001,
        "post_office": "Dehradun PB",
        "district": "Dehradun",
        "collected": false
    },
    {
        "id": 53,
        "name_of_ppc": "Lal Bahadur Shastri National Academy of Administration",
        "pincode": 248179,
        "post_office": "NAA Mussoorie SO",
        "district": "Dehradun",
        "collected": false
    },
    {
        "id": 54,
        "name_of_ppc": "Mountains",
        "pincode": 263001,
        "post_office": "Nainital PB",
        "district": "Nainital",
        "collected": false
    },
    {
        "id": 55,
        "name_of_ppc": "Jageshwar Group of Temples",
        "pincode": 263623,
        "post_office": "Jageshwar BO",
        "district": "Almora",
        "collected": false
    },
    {
        "id": 45,
        "name_of_ppc": "Taj Mahal",
        "pincode": 282001,
        "post_office": "Agra HO-PB",
        "district": "Agra",
        "collected": false
    },
    {
        "id": 46,
        "name_of_ppc": "Taj Mahal",
        "pincode": 282001,
        "post_office": "Taj SO",
        "district": "Agra",
        "collected": false
    },
    {
        "id": 47,
        "name_of_ppc": "Taj Mahal",
        "pincode": 282001,
        "post_office": "Taj SO",
        "district": "Agra",
        "collected": false
    },
    {
        "id": 48,
        "name_of_ppc": "Buland Darwaza",
        "pincode": 283110,
        "post_office": "Fatehpur Sikri SO",
        "district": "Agra",
        "collected": false
    },
    {
        "id": 56,
        "name_of_ppc": "Hawa Mahal",
        "pincode": 302001,
        "post_office": "Jaipur GPO-PB",
        "district": "Jaipur",
        "collected": false
    },
    {
        "id": 57,
        "name_of_ppc": "Hawa Mahal",
        "pincode": 302002,
        "post_office": "Tripolia Bazaar SO",
        "district": "Jaipur",
        "collected": false
    },
    {
        "id": 58,
        "name_of_ppc": "Sundial, Jai Singh Observatory",
        "pincode": 302005,
        "post_office": "Rambagh Palace, Jaipur SO",
        "district": "Jaipur",
        "collected": false
    },
    {
        "id": 59,
        "name_of_ppc": "Amer Fort",
        "pincode": 302028,
        "post_office": "Amer SO",
        "district": "Jaipur",
        "collected": false
    },
    {
        "id": 60,
        "name_of_ppc": "Amer Fort",
        "pincode": 302028,
        "post_office": "Amer SO",
        "district": "Jaipur",
        "collected": false
    },
    {
        "id": 61,
        "name_of_ppc": "Prithviraj Chauhan",
        "pincode": 305001,
        "post_office": "Ajmer HO-PB",
        "district": "Ajmer",
        "collected": false
    },
    {
        "id": 62,
        "name_of_ppc": "Ranakpur Jain Temple",
        "pincode": 306702,
        "post_office": "Ranakpur BO",
        "district": "Pali",
        "collected": false
    },
    {
        "id": 63,
        "name_of_ppc": "Delwara Jain Temple",
        "pincode": 307501,
        "post_office": "Mount Abu SO",
        "district": "Sirohi",
        "collected": false
    },
    {
        "id": 64,
        "name_of_ppc": "Delwara Jain Temple",
        "pincode": 307501,
        "post_office": "Delwara BO",
        "district": "Sirohi",
        "collected": false
    },
    {
        "id": 65,
        "name_of_ppc": "Vijay Stambh or Victory Tower",
        "pincode": 312001,
        "post_office": "Chittorgarh HO",
        "district": "Chittorgarh",
        "collected": false
    },
    {
        "id": 66,
        "name_of_ppc": "Maharana Pratap",
        "pincode": 313001,
        "post_office": "Panchwati Udaipur SO",
        "district": "Udaipur",
        "collected": false
    },
    {
        "id": 67,
        "name_of_ppc": "Maharana Pratap",
        "pincode": 313001,
        "post_office": "Shastri Circle Udaipur SO",
        "district": "Udaipur",
        "collected": false
    },
    {
        "id": 68,
        "name_of_ppc": "Ghana Bird Sanctuary",
        "pincode": 321001,
        "post_office": "Bharatpur HO",
        "district": "Bharatpur",
        "collected": false
    },
    {
        "id": 69,
        "name_of_ppc": "Siberian Crane",
        "pincode": 321001,
        "post_office": "Forest Lodge, Bharatpur BO",
        "district": "Bharatpur",
        "collected": false
    },
    {
        "id": 70,
        "name_of_ppc": "Ranathambore Fort",
        "pincode": 322001,
        "post_office": "Sawai Madhopur HO",
        "district": "Sawai Madhopur",
        "collected": false
    },
    {
        "id": 71,
        "name_of_ppc": "Shri Mahaveer Mandir",
        "pincode": 322220,
        "post_office": "Shrimahaveerji SO",
        "district": "Karauli",
        "collected": false
    },
    {
        "id": 72,
        "name_of_ppc": "BITS Pilani Clock Tower",
        "pincode": 333031,
        "post_office": "BITS Pilani SO",
        "district": "Jhunjhunu",
        "collected": false
    },
    {
        "id": 73,
        "name_of_ppc": "Acharya Tulsi Shakti Peeth",
        "pincode": 334401,
        "post_office": "Gangashahar SO",
        "district": "Bikaner",
        "collected": false
    },
    {
        "id": 74,
        "name_of_ppc": "Shri Karni Mata",
        "pincode": 334801,
        "post_office": "Deshnoke SO",
        "district": "Bikaner",
        "collected": false
    },
    {
        "id": 75,
        "name_of_ppc": "Mehrangarh Fort",
        "pincode": 342001,
        "post_office": "Jodhpur HO",
        "district": "Jodhpur",
        "collected": false
    },
    {
        "id": 76,
        "name_of_ppc": "Mahatma Gandhi Museum",
        "pincode": 360001,
        "post_office": "Rajkot HO-PB",
        "district": "Rajkot",
        "collected": false
    },
    {
        "id": 77,
        "name_of_ppc": "Mahatma Gandhi Museum",
        "pincode": 360001,
        "post_office": "Rajkot HO-PB",
        "district": "Rajkot",
        "collected": false
    },
    {
        "id": 78,
        "name_of_ppc": "Mahatma Gandhi Museum",
        "pincode": 360001,
        "post_office": "Rajkot HO-PB",
        "district": "Rajkot",
        "collected": false
    },
    {
        "id": 79,
        "name_of_ppc": "Kirti Mandir-The Birth Place of Mahatma Gandhi",
        "pincode": 360575,
        "post_office": "Porbandar HO",
        "district": "Porbandar",
        "collected": false
    },
    {
        "id": 80,
        "name_of_ppc": "Arabian Sea Octopus",
        "pincode": 361001,
        "post_office": "Jamnagar HO",
        "district": "Jamnagar",
        "collected": false
    },
    {
        "id": 81,
        "name_of_ppc": "Arabian Sea & Bet Dwarka",
        "pincode": 361330,
        "post_office": "Bet SO",
        "district": "Devbhoomi Dwarka",
        "collected": false
    },
    {
        "id": 82,
        "name_of_ppc": "Dwarkadhish Temple, Land of Sri Krishna",
        "pincode": 361335,
        "post_office": "Dwarka SO",
        "district": "Devbhoomi Dwarka",
        "collected": false
    },
    {
        "id": 83,
        "name_of_ppc": "Asiatic Lions & Visit Sasan Gir Wildlife Sanctuary",
        "pincode": 362135,
        "post_office": "Sasan Gir SO",
        "district": "Junagadh",
        "collected": false
    },
    {
        "id": 84,
        "name_of_ppc": "Sri Somnath Temple",
        "pincode": 362268,
        "post_office": "Prabhas Patan SO",
        "district": "Gir Somnath",
        "collected": false
    },
    {
        "id": 111,
        "name_of_ppc": "Diu Fort",
        "pincode": 362520,
        "post_office": "Diu SO",
        "district": "Junagadh",
        "collected": false
    },
    {
        "id": 85,
        "name_of_ppc": "Indian Wild Ass",
        "pincode": 363310,
        "post_office": "Dhrangadhra MDG-SO",
        "district": "Surendranagar",
        "collected": false
    },
    {
        "id": 86,
        "name_of_ppc": "Siddha Chakra",
        "pincode": 364270,
        "post_office": "Palitana SR SO",
        "district": "Bhavnagar",
        "collected": false
    },
    {
        "id": 87,
        "name_of_ppc": "Visit Flamingo City, Bird Sanctuary",
        "pincode": 370001,
        "post_office": "Bhuj HO",
        "district": "Kachchh",
        "collected": false
    },
    {
        "id": 88,
        "name_of_ppc": "Harappan Culture",
        "pincode": 370165,
        "post_office": "Dholavira BO",
        "district": "Kachchh",
        "collected": false
    },
    {
        "id": 89,
        "name_of_ppc": "Kachchhi Mudwork",
        "pincode": 370510,
        "post_office": "Khavda SO",
        "district": "Kachchh",
        "collected": false
    },
    {
        "id": 90,
        "name_of_ppc": "Lakhpat Fort, Kachchhh",
        "pincode": 370627,
        "post_office": "Lakhpat BO",
        "district": "Kachchh",
        "collected": false
    },
    {
        "id": 91,
        "name_of_ppc": "Architectural Delights Sidi Saiyad\u2019s Window",
        "pincode": 380001,
        "post_office": "Ahmedabad GPO",
        "district": "Ahmedabad",
        "collected": false
    },
    {
        "id": 92,
        "name_of_ppc": "Sardar Vallabhbhai Patel National Memorial",
        "pincode": 380004,
        "post_office": "Shahibaug SO",
        "district": "Ahmedabad",
        "collected": false
    },
    {
        "id": 93,
        "name_of_ppc": "Kocharab Satyagraha Ashram Smarak",
        "pincode": 380006,
        "post_office": "Ellisbridge SO",
        "district": "Ahmedabad",
        "collected": false
    },
    {
        "id": 94,
        "name_of_ppc": "Adalaj Stepwell",
        "pincode": 380009,
        "post_office": "Navrangpura HO",
        "district": "Ahmedabad",
        "collected": false
    },
    {
        "id": 95,
        "name_of_ppc": "Sidi Saiyad\u2019s Mosque Window",
        "pincode": 380015,
        "post_office": "IIM, Ahmedabad SO",
        "district": "Ahmedabad",
        "collected": false
    },
    {
        "id": 96,
        "name_of_ppc": "Sabarmati Ashram",
        "pincode": 380027,
        "post_office": "Gandhi Ashram SO",
        "district": "Ahmedabad",
        "collected": false
    },
    {
        "id": 97,
        "name_of_ppc": "Sabarmati Ashram",
        "pincode": 380027,
        "post_office": "Gandhi Ashram SO",
        "district": "Ahmedabad",
        "collected": false
    },
    {
        "id": 98,
        "name_of_ppc": "Sabarmati Ashram",
        "pincode": 380027,
        "post_office": "Gandhi Ashram SO",
        "district": "Ahmedabad",
        "collected": false
    },
    {
        "id": 99,
        "name_of_ppc": "Lothal Seal",
        "pincode": 382230,
        "post_office": "Lothal Bhurkhi Railway Station SO",
        "district": "Ahmedabad",
        "collected": false
    },
    {
        "id": 100,
        "name_of_ppc": "Rani Ki Vav (Stepwell)",
        "pincode": 384265,
        "post_office": "Patan (NG) SO",
        "district": "Patan",
        "collected": false
    },
    {
        "id": 101,
        "name_of_ppc": "Surya Temple",
        "pincode": 384412,
        "post_office": "Modhera SO",
        "district": "Mehsana",
        "collected": false
    },
    {
        "id": 102,
        "name_of_ppc": "Birth Place of Sardar Vallabhbhai Patel",
        "pincode": 387001,
        "post_office": "Nadiad HO",
        "district": "Kheda",
        "collected": false
    },
    {
        "id": 103,
        "name_of_ppc": "Shri Ranchhordraiji Maharaj Temple",
        "pincode": 388225,
        "post_office": "Dakor SO",
        "district": "Kheda",
        "collected": false
    },
    {
        "id": 104,
        "name_of_ppc": "Sardar Vallabhbhai Patel",
        "pincode": 388325,
        "post_office": "Karamsad SO",
        "district": "Anand",
        "collected": false
    },
    {
        "id": 105,
        "name_of_ppc": "Chamar Dharini",
        "pincode": 390001,
        "post_office": "Vadodara HO",
        "district": "Vadodara",
        "collected": false
    },
    {
        "id": 106,
        "name_of_ppc": "Maharaja Sayajirao Gaekwad",
        "pincode": 390002,
        "post_office": "Vadodara Fateganj HO",
        "district": "Vadodara",
        "collected": false
    },
    {
        "id": 107,
        "name_of_ppc": "Sardar Sarovar Project and Statue of Unity",
        "pincode": 393151,
        "post_office": "Kevadia Colony SO",
        "district": "Narmada",
        "collected": false
    },
    {
        "id": 108,
        "name_of_ppc": "Sardar Sarovar Project and Statue of Unity",
        "pincode": 393151,
        "post_office": "Kevadia Colony SO",
        "district": "Narmada",
        "collected": false
    },
    {
        "id": 109,
        "name_of_ppc": "Hajira Lighthouse",
        "pincode": 394270,
        "post_office": "Hajira SO",
        "district": "Surat",
        "collected": false
    },
    {
        "id": 110,
        "name_of_ppc": "Musical Instruments of Local Tribes",
        "pincode": 394720,
        "post_office": "Saputara SO",
        "district": "Dang",
        "collected": false
    },
    {
        "id": 112,
        "name_of_ppc": "Mumbai GPO Building",
        "pincode": 400001,
        "post_office": "Mumbai GPO-PB",
        "district": "Mumbai City",
        "collected": false
    },
    {
        "id": 113,
        "name_of_ppc": "Mumbai GPO Building",
        "pincode": 400001,
        "post_office": "Mumbai GPO-PB",
        "district": "Mumbai City",
        "collected": false
    },
    {
        "id": 114,
        "name_of_ppc": "Gateway of India",
        "pincode": 400001,
        "post_office": "Taj Mahal SO",
        "district": "Mumbai City",
        "collected": false
    },
    {
        "id": 115,
        "name_of_ppc": "Trimurthi",
        "pincode": 400021,
        "post_office": "Elephanta Caves BO",
        "district": "Mumbai",
        "collected": false
    },
    {
        "id": 116,
        "name_of_ppc": "Mount Mary Church",
        "pincode": 400050,
        "post_office": "Bandra West SO",
        "district": "Mumbai",
        "collected": false
    },
    {
        "id": 117,
        "name_of_ppc": "Greater Flamingo",
        "pincode": 400708,
        "post_office": "Airoli Node SO",
        "district": "Thane",
        "collected": false
    },
    {
        "id": 137,
        "name_of_ppc": "Indian Bison, Cashew, Fish, and Coconut Tree",
        "pincode": 403001,
        "post_office": "Panaji HO-PB",
        "district": "North Goa",
        "collected": false
    },
    {
        "id": 138,
        "name_of_ppc": "Dr. Salim Ali Bird Sanctuary",
        "pincode": 403102,
        "post_office": "Chorao SO",
        "district": "North Goa",
        "collected": false
    },
    {
        "id": 139,
        "name_of_ppc": "Reis Magos Fort",
        "pincode": 403114,
        "post_office": "Reis Magos SO",
        "district": "North Goa",
        "collected": false
    },
    {
        "id": 140,
        "name_of_ppc": "Basilica of Bom Jesus",
        "pincode": 403402,
        "post_office": "Velha Goa SO",
        "district": "North Goa",
        "collected": false
    },
    {
        "id": 141,
        "name_of_ppc": "Mangueshi Temple",
        "pincode": 403404,
        "post_office": "Mardol SO",
        "district": "South Goa",
        "collected": false
    },
    {
        "id": 142,
        "name_of_ppc": "Tambdi Surla",
        "pincode": 403406,
        "post_office": "Sancordem BO",
        "district": "South Goa",
        "collected": false
    },
    {
        "id": 143,
        "name_of_ppc": "Bondla Wildlife Sanctuary",
        "pincode": 403406,
        "post_office": "Usgaon BO",
        "district": "South Goa",
        "collected": false
    },
    {
        "id": 144,
        "name_of_ppc": "Malabar Tree Nymph",
        "pincode": 403506,
        "post_office": "Valpoi SO",
        "district": "North Goa",
        "collected": false
    },
    {
        "id": 145,
        "name_of_ppc": "Fort Aguada Lighthouse",
        "pincode": 403515,
        "post_office": "Candolim SO",
        "district": "North Goa",
        "collected": false
    },
    {
        "id": 146,
        "name_of_ppc": "Margao Head Post Office Building",
        "pincode": 403601,
        "post_office": "Margao HO",
        "district": "South Goa",
        "collected": false
    },
    {
        "id": 147,
        "name_of_ppc": "Humpback Dolphin",
        "pincode": 403702,
        "post_office": "Palolem BO",
        "district": "South Goa",
        "collected": false
    },
    {
        "id": 148,
        "name_of_ppc": "Big Foot Sculpture of Meerabai",
        "pincode": 403718,
        "post_office": "Loutulim SO",
        "district": "South Goa",
        "collected": false
    },
    {
        "id": 149,
        "name_of_ppc": "Olive Ridley Turtle",
        "pincode": 403728,
        "post_office": "Loliem SO",
        "district": "South Goa",
        "collected": false
    },
    {
        "id": 118,
        "name_of_ppc": "Matheran Light Railway Locomotive",
        "pincode": 410102,
        "post_office": "Matheran SO",
        "district": "Raigad",
        "collected": false
    },
    {
        "id": 119,
        "name_of_ppc": "Giant Meter Wave Radio Telescope",
        "pincode": 410517,
        "post_office": "Khodad SO",
        "district": "Pune",
        "collected": false
    },
    {
        "id": 120,
        "name_of_ppc": "Pune Head Post Office Building",
        "pincode": 411001,
        "post_office": "Pune HO-PB",
        "district": "Pune",
        "collected": false
    },
    {
        "id": 121,
        "name_of_ppc": "Shaniwar Wada",
        "pincode": 411030,
        "post_office": "Shaniwar Peth SO",
        "district": "Pune",
        "collected": false
    },
    {
        "id": 122,
        "name_of_ppc": "Strawberry",
        "pincode": 412806,
        "post_office": "Mahabaleshwar SO",
        "district": "Satara",
        "collected": false
    },
    {
        "id": 123,
        "name_of_ppc": "Pratapgad Fort",
        "pincode": 412806,
        "post_office": "Pratapgad BO",
        "district": "Satara",
        "collected": false
    },
    {
        "id": 124,
        "name_of_ppc": "Great Indian Bustard",
        "pincode": 413222,
        "post_office": "Nannaj SO",
        "district": "Solapur",
        "collected": false
    },
    {
        "id": 125,
        "name_of_ppc": "Vithoba Temple",
        "pincode": 413304,
        "post_office": "Pandharpur HO",
        "district": "Solapur",
        "collected": false
    },
    {
        "id": 126,
        "name_of_ppc": "Kirloskar Engine",
        "pincode": 416308,
        "post_office": "Kirloskarvadi SO",
        "district": "Sangli",
        "collected": false
    },
    {
        "id": 127,
        "name_of_ppc": "Pandav Leni",
        "pincode": 422010,
        "post_office": "Ambad A S SO",
        "district": "Nashik",
        "collected": false
    },
    {
        "id": 128,
        "name_of_ppc": "Panchakki",
        "pincode": 431001,
        "post_office": "Medical College SO",
        "district": "Chhatrapati Sambhajinagar",
        "collected": false
    },
    {
        "id": 129,
        "name_of_ppc": "Chand Minar",
        "pincode": 431002,
        "post_office": "Daulatabad BO",
        "district": "Chhatrapati Sambhajinagar",
        "collected": false
    },
    {
        "id": 130,
        "name_of_ppc": "Deep Stambh",
        "pincode": 431102,
        "post_office": "Ellora Caves BO",
        "district": "Chhatrapati Sambhajinagar",
        "collected": false
    },
    {
        "id": 131,
        "name_of_ppc": "Six Tusk Elephant",
        "pincode": 431117,
        "post_office": "Ajanta Caves BO",
        "district": "Chhatrapati Sambhajinagar",
        "collected": false
    },
    {
        "id": 132,
        "name_of_ppc": "Six Tusk Elephant",
        "pincode": 431117,
        "post_office": "Ajanta Caves BO",
        "district": "Chhatrapati Sambhajinagar",
        "collected": false
    },
    {
        "id": 133,
        "name_of_ppc": "Six Tusk Elephant",
        "pincode": 431117,
        "post_office": "Ajanta Caves BO",
        "district": "Chhatrapati Sambhajinagar",
        "collected": false
    },
    {
        "id": 134,
        "name_of_ppc": "Nagpur GPO Building",
        "pincode": 440001,
        "post_office": "Nagpur GPO",
        "district": "Nagpur",
        "collected": false
    },
    {
        "id": 135,
        "name_of_ppc": "Deekshabhoomi",
        "pincode": 440010,
        "post_office": "Shankar Nagar SO",
        "district": "Nagpur",
        "collected": false
    },
    {
        "id": 136,
        "name_of_ppc": "Lonar Lake",
        "pincode": 443302,
        "post_office": "Lonar SO",
        "district": "Buldhana",
        "collected": false
    },
    {
        "id": 150,
        "name_of_ppc": "Krishnapura Chhatri",
        "pincode": 452001,
        "post_office": "Indore GPO-PB",
        "district": "Indore",
        "collected": false
    },
    {
        "id": 151,
        "name_of_ppc": "Krishnapura Chhatri",
        "pincode": 452001,
        "post_office": "Indore GPO-PB",
        "district": "Indore",
        "collected": false
    },
    {
        "id": 152,
        "name_of_ppc": "Raja Bhoj",
        "pincode": 462036,
        "post_office": "Raja Bhoj Airport SO",
        "district": "Bhopal",
        "collected": false
    },
    {
        "id": 153,
        "name_of_ppc": "Udaygiri Caves-Varaha (Boar) Carving",
        "pincode": 464001,
        "post_office": "Udaygiri BO",
        "district": "Vidisha",
        "collected": false
    },
    {
        "id": 154,
        "name_of_ppc": "Sanchi Stupa",
        "pincode": 464661,
        "post_office": "Sanchi SO",
        "district": "Raisen",
        "collected": false
    },
    {
        "id": 155,
        "name_of_ppc": "Bhimbetka",
        "pincode": 464993,
        "post_office": "Ankalpur BO",
        "district": "Raisen",
        "collected": false
    },
    {
        "id": 156,
        "name_of_ppc": "Khajuraho Temple",
        "pincode": 471606,
        "post_office": "Khajuraho SO",
        "district": "Chhatarpur",
        "collected": false
    },
    {
        "id": 157,
        "name_of_ppc": "Badal Mahal",
        "pincode": 473446,
        "post_office": "Chanderi SO",
        "district": "Ashok Nagar",
        "collected": false
    },
    {
        "id": 158,
        "name_of_ppc": "Steel Ladle",
        "pincode": 490006,
        "post_office": "Civic Centre, Bhilai SO",
        "district": "Durg",
        "collected": false
    },
    {
        "id": 159,
        "name_of_ppc": "Bhoramdeo Temple",
        "pincode": 491995,
        "post_office": "Chhapri BO",
        "district": "Kabirdham",
        "collected": false
    },
    {
        "id": 160,
        "name_of_ppc": "Chhattisgarh - A \"Rice Bowl\"",
        "pincode": 492001,
        "post_office": "Raipur HO-PB",
        "district": "Raipur",
        "collected": false
    },
    {
        "id": 161,
        "name_of_ppc": "Chhattisgarh - A \"Rice Bowl\"",
        "pincode": 492001,
        "post_office": "Raipur HO-PB",
        "district": "Raipur",
        "collected": false
    },
    {
        "id": 162,
        "name_of_ppc": "Mata Kaushalya Mandir",
        "pincode": 492101,
        "post_office": "Chand Bhuri BO",
        "district": "Raipur",
        "collected": true
    },
    {
        "id": 163,
        "name_of_ppc": "Laxman Mandir",
        "pincode": 493445,
        "post_office": "Sirpur BO",
        "district": "Mahasamund",
        "collected": false
    },
    {
        "id": 164,
        "name_of_ppc": "Laxman Mandir",
        "pincode": 493445,
        "post_office": "Sirpur BO",
        "district": "Mahasamund",
        "collected": false
    },
    {
        "id": 165,
        "name_of_ppc": "Indian Bison (Gaur)",
        "pincode": 493551,
        "post_office": "Barnawapara BO",
        "district": "Raipur",
        "collected": false
    },
    {
        "id": 166,
        "name_of_ppc": "Shringi Rishi",
        "pincode": 493778,
        "post_office": "Sihawa BO",
        "district": "Dhamtari",
        "collected": false
    },
    {
        "id": 167,
        "name_of_ppc": "Saint Vallabhacharya & Champeshwar Nath Temple",
        "pincode": 493885,
        "post_office": "Champaran BO",
        "district": "Raipur",
        "collected": false
    },
    {
        "id": 168,
        "name_of_ppc": "Wild Buffalo",
        "pincode": 493889,
        "post_office": "Gariaband SO",
        "district": "Gariaband",
        "collected": true
    },
    {
        "id": 169,
        "name_of_ppc": "Maria Tribe",
        "pincode": 494001,
        "post_office": "Jagdalpur HO",
        "district": "Bastar",
        "collected": true
    },
    {
        "id": 170,
        "name_of_ppc": "Chitrakote Waterfall",
        "pincode": 494010,
        "post_office": "Chitrakote BO",
        "district": "Bastar",
        "collected": false
    },
    {
        "id": 171,
        "name_of_ppc": "Hill Myna",
        "pincode": 494115,
        "post_office": "Tongpal SO",
        "district": "Bastar",
        "collected": true
    },
    {
        "id": 172,
        "name_of_ppc": "Rudra Shiv Sculpture",
        "pincode": 495001,
        "post_office": "Bilaspur HO",
        "district": "Bilaspur",
        "collected": false
    },
    {
        "id": 173,
        "name_of_ppc": "Tiger ATR",
        "pincode": 495113,
        "post_office": "Achanakmar BO",
        "district": "Mungeli",
        "collected": true
    },
    {
        "id": 174,
        "name_of_ppc": "Lemru Elephant Reserve",
        "pincode": 495448,
        "post_office": "Bango Dam BO",
        "district": "Korba",
        "collected": false
    },
    {
        "id": 175,
        "name_of_ppc": "Kotmi Sonar Crocodile Park",
        "pincode": 495552,
        "post_office": "Kotmi Sonar BO",
        "district": "Janjgir-Champa",
        "collected": false
    },
    {
        "id": 176,
        "name_of_ppc": "Snake",
        "pincode": 496227,
        "post_office": "Tapkara SO",
        "district": "Jashpur",
        "collected": false
    },
    {
        "id": 177,
        "name_of_ppc": "Old Tibetan Buddhist Monastery",
        "pincode": 497111,
        "post_office": "Kamleshwarpur BO",
        "district": "Surguja",
        "collected": false
    },
    {
        "id": 178,
        "name_of_ppc": "Semarsot Sanctuary: Spotted Deer, Semarsot River",
        "pincode": 497118,
        "post_office": "Rajpur (SIJ) SO",
        "district": "Surguja",
        "collected": true
    },
    {
        "id": 179,
        "name_of_ppc": "Asiatic Cheetah",
        "pincode": 497335,
        "post_office": "Baikunthapur SO",
        "district": "Koriya",
        "collected": true
    },
    {
        "id": 180,
        "name_of_ppc": "Fossil Remains",
        "pincode": 497442,
        "post_office": "Manendragarh SO",
        "district": "\u00a0Manendragarh-Chirmiri-Bharatpur (MCB)",
        "collected": false
    },
    {
        "id": 181,
        "name_of_ppc": "Charminar",
        "pincode": 500001,
        "post_office": "Hyderabad GPO",
        "district": "Hyderabad",
        "collected": false
    },
    {
        "id": 182,
        "name_of_ppc": "Railway Engine",
        "pincode": 500003,
        "post_office": "Rail Nilayam SO",
        "district": "Hyderabad",
        "collected": false
    },
    {
        "id": 183,
        "name_of_ppc": "Osmania University",
        "pincode": 500007,
        "post_office": "Jama-I-Osmania SO",
        "district": "Hyderabad",
        "collected": false
    },
    {
        "id": 184,
        "name_of_ppc": "Golconda Fort",
        "pincode": 500008,
        "post_office": "Golconda SO",
        "district": "Hyderabad",
        "collected": false
    },
    {
        "id": 185,
        "name_of_ppc": "Ronald Ross Building",
        "pincode": 500016,
        "post_office": "Begumpet SO",
        "district": "Hyderabad",
        "collected": false
    },
    {
        "id": 186,
        "name_of_ppc": "Buddha Statue",
        "pincode": 500029,
        "post_office": "Himayath Nagar SO",
        "district": "Hyderabad",
        "collected": false
    },
    {
        "id": 187,
        "name_of_ppc": "Medak Cathedral",
        "pincode": 502110,
        "post_office": "Medak HO",
        "district": "Medak",
        "collected": false
    },
    {
        "id": 188,
        "name_of_ppc": "Warangal Gate",
        "pincode": 506002,
        "post_office": "Warangal HO",
        "district": "Warangal",
        "collected": false
    },
    {
        "id": 189,
        "name_of_ppc": "Bhakta Ramadasu",
        "pincode": 507111,
        "post_office": "Bhadrachalam HO",
        "district": "Bhadradri Kothagudem",
        "collected": false
    },
    {
        "id": 190,
        "name_of_ppc": "Lepakshi Nandi",
        "pincode": 515331,
        "post_office": "Lepakshi SO",
        "district": "Sri Sathya Sai",
        "collected": false
    },
    {
        "id": 191,
        "name_of_ppc": "Tirumala Gopuram, Sankhu, and Chakra",
        "pincode": 517501,
        "post_office": "Tirupati HO",
        "district": "Tirupati",
        "collected": false
    },
    {
        "id": 192,
        "name_of_ppc": "Tallapaka Annamacharya",
        "pincode": 517504,
        "post_office": "Tirumala SO",
        "district": "Tirupati",
        "collected": false
    },
    {
        "id": 193,
        "name_of_ppc": "Deity of Sri Kalahasteeswara Swamy",
        "pincode": 517644,
        "post_office": "Srikalahasti HO",
        "district": "Tirupati",
        "collected": false
    },
    {
        "id": 194,
        "name_of_ppc": "Gopuram of Sri Mallikarjuna Swamy Temple",
        "pincode": 518101,
        "post_office": "Srisailam SO",
        "district": "Nandyala",
        "collected": false
    },
    {
        "id": 195,
        "name_of_ppc": "Amaravathi Stupa",
        "pincode": 522020,
        "post_office": "Amaravathi SO",
        "district": "Palnadu",
        "collected": false
    },
    {
        "id": 196,
        "name_of_ppc": "Undavalli Caves",
        "pincode": 522501,
        "post_office": "Undavalli BO",
        "district": "Guntur",
        "collected": false
    },
    {
        "id": 197,
        "name_of_ppc": "ISRO Radar",
        "pincode": 524124,
        "post_office": "Sriharikota Range SO",
        "district": "Tirupati",
        "collected": false
    },
    {
        "id": 198,
        "name_of_ppc": "Dolphin\u2019s Nose Lighthouse",
        "pincode": 530001,
        "post_office": "Visakhapatnam HO",
        "district": "Visakhapatnam",
        "collected": true
    },
    {
        "id": 199,
        "name_of_ppc": "Ancient Marine Craft from the Legend of Buddha",
        "pincode": 530001,
        "post_office": "Visakhapatnam Shipyard HO",
        "district": "Visakhapatnam",
        "collected": true
    },
    {
        "id": 200,
        "name_of_ppc": "Gopuram of Sri Varaha Lakshmi Narasimha Swamy Temple",
        "pincode": 530028,
        "post_office": "Simhachalam SO",
        "district": "Visakhapatnam",
        "collected": false
    },
    {
        "id": 201,
        "name_of_ppc": "Gopuram of Sri Suryanarayana Swamy Temple",
        "pincode": 532401,
        "post_office": "Arasavalli SO",
        "district": "Srikakulam",
        "collected": false
    },
    {
        "id": 202,
        "name_of_ppc": "Gopuram of Sri Kurmanathaswamy Temple",
        "pincode": 532404,
        "post_office": "Srikurmam SO",
        "district": "Srikakulam",
        "collected": false
    },
    {
        "id": 203,
        "name_of_ppc": "Vidhana Soudha",
        "pincode": 560001,
        "post_office": "Bengaluru GPO-PB",
        "district": "Bengaluru Urban",
        "collected": false
    },
    {
        "id": 204,
        "name_of_ppc": "Karnataka High Court Building",
        "pincode": 560001,
        "post_office": "High Court SO",
        "district": "Bengaluru Urban",
        "collected": false
    },
    {
        "id": 205,
        "name_of_ppc": "Kempegowda Tower",
        "pincode": 560004,
        "post_office": "Basavanagudi HO",
        "district": "Bengaluru Urban",
        "collected": false
    },
    {
        "id": 206,
        "name_of_ppc": "Rajajinagar Foundation Pillar",
        "pincode": 560010,
        "post_office": "Rajajinagar HO",
        "district": "Bengaluru Urban",
        "collected": false
    },
    {
        "id": 207,
        "name_of_ppc": "Ashoka Pilar",
        "pincode": 560011,
        "post_office": "Jayanagar 3rd Block SO",
        "district": "Bengaluru Urban",
        "collected": false
    },
    {
        "id": 208,
        "name_of_ppc": "Indian Institute of Science Building",
        "pincode": 560012,
        "post_office": "Science Institute SO",
        "district": "Bengaluru Urban",
        "collected": false
    },
    {
        "id": 209,
        "name_of_ppc": "U R Rao Satellite Centre",
        "pincode": 560017,
        "post_office": "NAL SO",
        "district": "Bengaluru Urban",
        "collected": false
    },
    {
        "id": 210,
        "name_of_ppc": "Sandesha Museum",
        "pincode": 560025,
        "post_office": "Museum Road SO",
        "district": "Bengaluru Urban",
        "collected": false
    },
    {
        "id": 211,
        "name_of_ppc": "Butterfly-Malabar Banded Peacock",
        "pincode": 560083,
        "post_office": "Bannerghatta SO",
        "district": "Bengaluru Urban",
        "collected": true
    },
    {
        "id": 212,
        "name_of_ppc": "Nandi Statue",
        "pincode": 562101,
        "post_office": "Nandi Hills BO",
        "district": "Chikkaballapura",
        "collected": false
    },
    {
        "id": 213,
        "name_of_ppc": "Grizzled Giant Squirrel",
        "pincode": 562117,
        "post_office": "Helagalli BO",
        "district": "Ramanagara",
        "collected": false
    },
    {
        "id": 214,
        "name_of_ppc": "Gold Miner",
        "pincode": 563117,
        "post_office": "Championreefs SO",
        "district": "Kolar",
        "collected": false
    },
    {
        "id": 215,
        "name_of_ppc": "Masti Venkatesha Iyengar",
        "pincode": 563139,
        "post_office": "Masthi SO",
        "district": "Kolar",
        "collected": false
    },
    {
        "id": 216,
        "name_of_ppc": "Elephant Carrying Howdah",
        "pincode": 570001,
        "post_office": "Mysuru HO-PB",
        "district": "Mysuru",
        "collected": false
    },
    {
        "id": 217,
        "name_of_ppc": "Silver Jubilee Clock Tower",
        "pincode": 570004,
        "post_office": "Lakshmipuram SO",
        "district": "Mysuru",
        "collected": false
    },
    {
        "id": 218,
        "name_of_ppc": "Mysuru: Our Heritage - Your Destination",
        "pincode": 570009,
        "post_office": "Saraswathipuram HO",
        "district": "Mysuru",
        "collected": false
    },
    {
        "id": 219,
        "name_of_ppc": "Mahishasura",
        "pincode": 570010,
        "post_office": "Chamundibetta BO",
        "district": "Mysuru",
        "collected": false
    },
    {
        "id": 220,
        "name_of_ppc": "Nada Mantapa",
        "pincode": 570025,
        "post_office": "S.G.S. Ashram, Mysuru SO",
        "district": "Mysuru",
        "collected": false
    },
    {
        "id": 221,
        "name_of_ppc": "Sri Chennakesava Temple",
        "pincode": 571120,
        "post_office": "Somanathapura BO",
        "district": "Mysuru",
        "collected": false
    },
    {
        "id": 222,
        "name_of_ppc": "Panchalinga Darshan",
        "pincode": 571122,
        "post_office": "Talakad SO",
        "district": "Mysuru",
        "collected": false
    },
    {
        "id": 223,
        "name_of_ppc": "Tiger Paw",
        "pincode": 571126,
        "post_office": "Bandipur BO",
        "district": "Chamarajanagara",
        "collected": false
    },
    {
        "id": 224,
        "name_of_ppc": "Tiger Paw",
        "pincode": 571126,
        "post_office": "Bandipur BO",
        "district": "Chamarajanagara",
        "collected": false
    },
    {
        "id": 225,
        "name_of_ppc": "Odi Kathi & Peechi Kathi",
        "pincode": 571201,
        "post_office": "Madikeri HO",
        "district": "Kodagu",
        "collected": false
    },
    {
        "id": 226,
        "name_of_ppc": "Gloriosa Superba (Wild Lily)",
        "pincode": 571250,
        "post_office": "Nagarahole BO",
        "district": "Kodagu",
        "collected": false
    },
    {
        "id": 227,
        "name_of_ppc": "Porcupine",
        "pincode": 571342,
        "post_office": "Kyathadevaragudi BO",
        "district": "Chamarajanagara",
        "collected": false
    },
    {
        "id": 228,
        "name_of_ppc": "Flying Pelican",
        "pincode": 571433,
        "post_office": "Kokkare Bellur BO",
        "district": "Mandya",
        "collected": false
    },
    {
        "id": 229,
        "name_of_ppc": "Crown and Sword of Tipu Sultan",
        "pincode": 571438,
        "post_office": "Srirangapatna HO",
        "district": "Mandya",
        "collected": false
    },
    {
        "id": 230,
        "name_of_ppc": "Crown and Sword of Tipu Sultan",
        "pincode": 571438,
        "post_office": "Srirangapatna HO",
        "district": "Mandya",
        "collected": false
    },
    {
        "id": 231,
        "name_of_ppc": "Elephant",
        "pincode": 571490,
        "post_office": "Mahadeshwara Malai SO",
        "district": "Chamarajanagara",
        "collected": false
    },
    {
        "id": 232,
        "name_of_ppc": "His Holiness Sri Sivakumara Mahaswamiji",
        "pincode": 572104,
        "post_office": "Siddaganga Mutt SO",
        "district": "Tumakuru",
        "collected": false
    },
    {
        "id": 233,
        "name_of_ppc": "Pinchi Basadi, Mandaragiri",
        "pincode": 572168,
        "post_office": "Hirehalli SO",
        "district": "Tumakuru",
        "collected": false
    },
    {
        "id": 234,
        "name_of_ppc": "Darpana Sundari",
        "pincode": 573115,
        "post_office": "Belur SO",
        "district": "Hassan",
        "collected": false
    },
    {
        "id": 235,
        "name_of_ppc": "Natya Saraswati",
        "pincode": 573121,
        "post_office": "Halebeedu SO",
        "district": "Hassan",
        "collected": false
    },
    {
        "id": 236,
        "name_of_ppc": "Gomateswara",
        "pincode": 573135,
        "post_office": "Shravanabelagola SO",
        "district": "Hassan",
        "collected": false
    },
    {
        "id": 237,
        "name_of_ppc": "Seated Tirthankara",
        "pincode": 574104,
        "post_office": "Karkala HO",
        "district": "Udupi",
        "collected": false
    },
    {
        "id": 238,
        "name_of_ppc": "Mattu Gulla",
        "pincode": 574105,
        "post_office": "Katapadi SO",
        "district": "Udupi",
        "collected": false
    },
    {
        "id": 239,
        "name_of_ppc": "Kaup Lighthouse",
        "pincode": 574106,
        "post_office": "Kaup SO",
        "district": "Udupi",
        "collected": false
    },
    {
        "id": 240,
        "name_of_ppc": "Kere Basadi",
        "pincode": 574108,
        "post_office": "Varanga BO",
        "district": "Udupi",
        "collected": false
    },
    {
        "id": 241,
        "name_of_ppc": "Shankarpura Mallige",
        "pincode": 574115,
        "post_office": "Shankarpura SO",
        "district": "Udupi",
        "collected": false
    },
    {
        "id": 242,
        "name_of_ppc": "Sri Durga Parameshwari Temple",
        "pincode": 574148,
        "post_office": "Kateel SO",
        "district": "Dakshina Kannada",
        "collected": false
    },
    {
        "id": 243,
        "name_of_ppc": "Sri Manjunatheswara Temple",
        "pincode": 574216,
        "post_office": "Dharmasthala SO",
        "district": "Dakshina Kannada",
        "collected": false
    },
    {
        "id": 244,
        "name_of_ppc": "Saavira Kambada Basadi",
        "pincode": 574227,
        "post_office": "Moodbidri SO",
        "district": "Dakshina Kannada",
        "collected": false
    },
    {
        "id": 245,
        "name_of_ppc": "Vasuki",
        "pincode": 574238,
        "post_office": "Subramanya SO",
        "district": "Dakshina Kannada",
        "collected": false
    },
    {
        "id": 246,
        "name_of_ppc": "Baahubali (Lord Gomateswara Statue)",
        "pincode": 574242,
        "post_office": "Venur SO",
        "district": "Dakshina Kannada",
        "collected": false
    },
    {
        "id": 247,
        "name_of_ppc": "Mangaluru Lighthouse",
        "pincode": 575001,
        "post_office": "Mangaluru HO-PB",
        "district": "Dakshina Kannada",
        "collected": false
    },
    {
        "id": 248,
        "name_of_ppc": "Rani Abbakka Devi",
        "pincode": 575020,
        "post_office": "Ullal SO",
        "district": "Dakshina Kannada",
        "collected": false
    },
    {
        "id": 249,
        "name_of_ppc": "Deity of Sri Krishna",
        "pincode": 576101,
        "post_office": "Udupi HO",
        "district": "Udupi",
        "collected": false
    },
    {
        "id": 250,
        "name_of_ppc": "Sri Venugopala Swamy Temple",
        "pincode": 576104,
        "post_office": "Manipal HO",
        "district": "Udupi",
        "collected": false
    },
    {
        "id": 251,
        "name_of_ppc": "St. Mary\u2019s Islands",
        "pincode": 576108,
        "post_office": "Malpe SO",
        "district": "Udupi",
        "collected": false
    },
    {
        "id": 252,
        "name_of_ppc": "Kavi Muddana & Manorame",
        "pincode": 576111,
        "post_office": "Nandalike BO",
        "district": "Udupi",
        "collected": false
    },
    {
        "id": 253,
        "name_of_ppc": "Indian Spotted Chevrotain (Mouse Deer)",
        "pincode": 576112,
        "post_office": "Someshwara BO",
        "district": "Udupi",
        "collected": false
    },
    {
        "id": 254,
        "name_of_ppc": "St. Lawrence Minor Basilica",
        "pincode": 576117,
        "post_office": "Attur BO",
        "district": "Udupi",
        "collected": false
    },
    {
        "id": 255,
        "name_of_ppc": "Panchagangavali",
        "pincode": 576201,
        "post_office": "Kundapura HO",
        "district": "Udupi",
        "collected": false
    },
    {
        "id": 256,
        "name_of_ppc": "Kathale Basadi",
        "pincode": 576210,
        "post_office": "Barkur SO",
        "district": "Udupi",
        "collected": false
    },
    {
        "id": 257,
        "name_of_ppc": "Sri Mookambika Temple, Kollur",
        "pincode": 576220,
        "post_office": "Kollur SO",
        "district": "Udupi",
        "collected": false
    },
    {
        "id": 258,
        "name_of_ppc": "Kota Shivarama Karanth",
        "pincode": 576221,
        "post_office": "Kota SO",
        "district": "Udupi",
        "collected": false
    },
    {
        "id": 259,
        "name_of_ppc": "Yakshagana of Mandarthi",
        "pincode": 576223,
        "post_office": "Mandarthi SO",
        "district": "Udupi",
        "collected": false
    },
    {
        "id": 260,
        "name_of_ppc": "Sri Chennagiri Rengappa Clock Tower",
        "pincode": 577001,
        "post_office": "Davanagere HO",
        "district": "Davanagere",
        "collected": false
    },
    {
        "id": 261,
        "name_of_ppc": "Coffee Estates of Chikkamagaluru",
        "pincode": 577101,
        "post_office": "Chikkamagaluru HO",
        "district": "Chikkamagaluru",
        "collected": false
    },
    {
        "id": 262,
        "name_of_ppc": "Sri Vidyasankara Temple",
        "pincode": 577139,
        "post_office": "Sringeri SO",
        "district": "Chikkamagaluru",
        "collected": false
    },
    {
        "id": 263,
        "name_of_ppc": "Kalinga - King Cobra",
        "pincode": 577411,
        "post_office": "Agumbe SO",
        "district": "Shivamogga",
        "collected": false
    },
    {
        "id": 264,
        "name_of_ppc": "Kundadri Shri Parshwanatha Basadi",
        "pincode": 577411,
        "post_office": "Kendalbailu BO",
        "district": "Shivamogga",
        "collected": false
    },
    {
        "id": 265,
        "name_of_ppc": "Kavi Shaila",
        "pincode": 577415,
        "post_office": "Devangi SO",
        "district": "Shivamogga",
        "collected": false
    },
    {
        "id": 266,
        "name_of_ppc": "Jog Falls",
        "pincode": 577435,
        "post_office": "Jog Falls SO",
        "district": "Shivamogga",
        "collected": false
    },
    {
        "id": 267,
        "name_of_ppc": "Sri Hombuja Jain Math",
        "pincode": 577436,
        "post_office": "Humcha SO",
        "district": "Shivamogga",
        "collected": false
    },
    {
        "id": 268,
        "name_of_ppc": "Onake Obavva",
        "pincode": 577501,
        "post_office": "Chitradurga HO",
        "district": "Chitradurga",
        "collected": false
    },
    {
        "id": 269,
        "name_of_ppc": "Bendre Bhavan",
        "pincode": 580008,
        "post_office": "Narayanapura SO",
        "district": "Dharwad",
        "collected": false
    },
    {
        "id": 270,
        "name_of_ppc": "Unkal Lake",
        "pincode": 580020,
        "post_office": "Hubballi HO",
        "district": "Dharwad",
        "collected": false
    },
    {
        "id": 271,
        "name_of_ppc": "Black Buck Sanctuary",
        "pincode": 581115,
        "post_office": "Ranebennur SO",
        "district": "Haveri",
        "collected": false
    },
    {
        "id": 272,
        "name_of_ppc": "Sri Sharifa Shivayogi and Guru Govind Shivayogi",
        "pincode": 581126,
        "post_office": "Shishuvinahal BO",
        "district": "Haveri",
        "collected": false
    },
    {
        "id": 273,
        "name_of_ppc": "Symbols of Sri Venkataramana Temple",
        "pincode": 581315,
        "post_office": "Manjuguni BO",
        "district": "Uttara Kannada",
        "collected": false
    },
    {
        "id": 274,
        "name_of_ppc": "Lord Shiva",
        "pincode": 581350,
        "post_office": "Murudeshwar SO",
        "district": "Uttara Kannada",
        "collected": false
    },
    {
        "id": 275,
        "name_of_ppc": "Kumaravyasa",
        "pincode": 582101,
        "post_office": "Gadag HO",
        "district": "Gadag",
        "collected": false
    },
    {
        "id": 276,
        "name_of_ppc": "Brahma Jinalaya",
        "pincode": 582115,
        "post_office": "Lakkundi SO",
        "district": "Gadag",
        "collected": false
    },
    {
        "id": 277,
        "name_of_ppc": "Adikavi Pampa",
        "pincode": 582201,
        "post_office": "Annigeri SO",
        "district": "Dharwad",
        "collected": false
    },
    {
        "id": 278,
        "name_of_ppc": "Ballari Fort",
        "pincode": 583102,
        "post_office": "Ballari Fort SO",
        "district": "Ballari",
        "collected": false
    },
    {
        "id": 279,
        "name_of_ppc": "Parvati - Kumaraswamy Temple",
        "pincode": 583119,
        "post_office": "Sandur SO",
        "district": "Ballari",
        "collected": false
    },
    {
        "id": 280,
        "name_of_ppc": "Kishkinda: Anjanadri Hill",
        "pincode": 583227,
        "post_office": "Anegundi BO",
        "district": "Koppal",
        "collected": false
    },
    {
        "id": 281,
        "name_of_ppc": "Sri Gavi Siddeshwar Samsthana Sri Gavimath",
        "pincode": 583231,
        "post_office": "Koppal HO",
        "district": "Koppal",
        "collected": false
    },
    {
        "id": 282,
        "name_of_ppc": "Stone Chariot",
        "pincode": 583239,
        "post_office": "Hampi SO",
        "district": "Vijayanagara",
        "collected": false
    },
    {
        "id": 283,
        "name_of_ppc": "Sloth Bear-Daroji Bear Sanctuary",
        "pincode": 583276,
        "post_office": "Kannada University Campus SO",
        "district": "Vijayanagara",
        "collected": false
    },
    {
        "id": 284,
        "name_of_ppc": "Sri Appannacharya Swamiji's House - Abode of Sri Guru Raghavendra Swami",
        "pincode": 584140,
        "post_office": "Bichali BO",
        "district": "Raichur",
        "collected": false
    },
    {
        "id": 285,
        "name_of_ppc": "Bara Gazi Toph",
        "pincode": 585101,
        "post_office": "Kalaburagi HO",
        "district": "Kalaburagi",
        "collected": false
    },
    {
        "id": 286,
        "name_of_ppc": "Bonal Bird Sanctuary",
        "pincode": 585224,
        "post_office": "Bonal BO",
        "district": "Yadgiri",
        "collected": false
    },
    {
        "id": 287,
        "name_of_ppc": "Shri 1008 Parshwanath Bhagawan",
        "pincode": 585226,
        "post_office": "Kamthana SO",
        "district": "Bidar",
        "collected": false
    },
    {
        "id": 288,
        "name_of_ppc": "Anubhava Mantapa",
        "pincode": 585327,
        "post_office": "Basavakalyan SO",
        "district": "Bidar",
        "collected": false
    },
    {
        "id": 289,
        "name_of_ppc": "Madrasa of Mohammed Gawan",
        "pincode": 585401,
        "post_office": "Bidar HO",
        "district": "Bidar",
        "collected": false
    },
    {
        "id": 290,
        "name_of_ppc": "Guru Nanak Jhira",
        "pincode": 585402,
        "post_office": "Guru Nanak Jhira SO",
        "district": "Bidar",
        "collected": false
    },
    {
        "id": 291,
        "name_of_ppc": "Gol Gumbaz",
        "pincode": 586101,
        "post_office": "Vijayapura HO",
        "district": "Vijayapura",
        "collected": false
    },
    {
        "id": 292,
        "name_of_ppc": "Chalukyan Royal Emblem",
        "pincode": 587124,
        "post_office": "Aihole BO",
        "district": "Bagalkote",
        "collected": false
    },
    {
        "id": 293,
        "name_of_ppc": "Lord Nataraja",
        "pincode": 587201,
        "post_office": "Badami SO",
        "district": "Bagalkote",
        "collected": false
    },
    {
        "id": 294,
        "name_of_ppc": "Galaganatha Temple",
        "pincode": 587201,
        "post_office": "Pattadakal BO",
        "district": "Bagalkote",
        "collected": false
    },
    {
        "id": 295,
        "name_of_ppc": "Clock Tower of Belgaum",
        "pincode": 590001,
        "post_office": "Belagavi HO",
        "district": "Belagavi",
        "collected": false
    },
    {
        "id": 296,
        "name_of_ppc": "Clock Tower of Belgaum",
        "pincode": 590001,
        "post_office": "Belagavi HO",
        "district": "Belagavi",
        "collected": false
    },
    {
        "id": 297,
        "name_of_ppc": "Kamal Basadi",
        "pincode": 590016,
        "post_office": "Belagavi Fort SO",
        "district": "Belagavi",
        "collected": false
    },
    {
        "id": 298,
        "name_of_ppc": "Kittur Rani Chennamma",
        "pincode": 591115,
        "post_office": "Kittur SO",
        "district": "Belagavi",
        "collected": false
    },
    {
        "id": 299,
        "name_of_ppc": "Krantiveera Sangolli Rayanna",
        "pincode": 591120,
        "post_office": "Nandgad SO",
        "district": "Belagavi",
        "collected": false
    },
    {
        "id": 300,
        "name_of_ppc": "Royal Logo of Kadamba",
        "pincode": 591120,
        "post_office": "Halashi BO",
        "district": "Belagavi",
        "collected": false
    },
    {
        "id": 301,
        "name_of_ppc": "Panchalingeswar Temple",
        "pincode": 591126,
        "post_office": "Hooli BO",
        "district": "Belagavi",
        "collected": false
    },
    {
        "id": 302,
        "name_of_ppc": "Sri Renuka Yallamma Devasthan",
        "pincode": 591173,
        "post_office": "Yallamma Hill SO",
        "district": "Belagavi",
        "collected": false
    },
    {
        "id": 303,
        "name_of_ppc": "Bhimgad Wildlife Sanctuary",
        "pincode": 591302,
        "post_office": "Shiroli BO",
        "district": "Belagavi",
        "collected": false
    },
    {
        "id": 304,
        "name_of_ppc": "Gokak Falls",
        "pincode": 591308,
        "post_office": "Gokak Falls SO",
        "district": "Belagavi",
        "collected": false
    },
    {
        "id": 305,
        "name_of_ppc": "Chennai General Post Office",
        "pincode": 600001,
        "post_office": "Chennai GPO",
        "district": "Chennai",
        "collected": false
    },
    {
        "id": 306,
        "name_of_ppc": "Anna Road Post Office (Warwick Electric Theatre)",
        "pincode": 600002,
        "post_office": "Anna Road HO",
        "district": "Chennai",
        "collected": false
    },
    {
        "id": 307,
        "name_of_ppc": "Punnai Leaves and Peacock",
        "pincode": 600004,
        "post_office": "Mylapore HO",
        "district": "Chennai",
        "collected": false
    },
    {
        "id": 308,
        "name_of_ppc": "University of Madras",
        "pincode": 600005,
        "post_office": "Madras University SO",
        "district": "Chennai",
        "collected": false
    },
    {
        "id": 309,
        "name_of_ppc": "Pulicat Lighthouse",
        "pincode": 601205,
        "post_office": "Pulicat SO",
        "district": "Thiruvallur",
        "collected": false
    },
    {
        "id": 310,
        "name_of_ppc": "Shore Temple",
        "pincode": 603104,
        "post_office": "Mamallapuram SO",
        "district": "Chengalpattu",
        "collected": false
    },
    {
        "id": 311,
        "name_of_ppc": "Painted Stork",
        "pincode": 603314,
        "post_office": "Vedanthangal BO",
        "district": "Chengalpattu",
        "collected": false
    },
    {
        "id": 312,
        "name_of_ppc": "Gingee Fort",
        "pincode": 604202,
        "post_office": "Gingee SO",
        "district": "Villupuram",
        "collected": false
    },
    {
        "id": 356,
        "name_of_ppc": "Aayi Mandapam",
        "pincode": 605001,
        "post_office": "Pondicherry HO-PB",
        "district": "Puducherry",
        "collected": false
    },
    {
        "id": 357,
        "name_of_ppc": "Logo of Sri Aurobindo Ashram and The Mother",
        "pincode": 605002,
        "post_office": "Sri Aurobindo Ashram SO",
        "district": "Puducherry",
        "collected": false
    },
    {
        "id": 313,
        "name_of_ppc": "Oil Lamp",
        "pincode": 606601,
        "post_office": "Tiruvannamalai HO",
        "district": "Tiruvannamalai",
        "collected": false
    },
    {
        "id": 314,
        "name_of_ppc": "Logo of Sri Ramanasramam",
        "pincode": 606603,
        "post_office": "Sri Ramanasramam SO",
        "district": "Tiruvannamalai",
        "collected": false
    },
    {
        "id": 315,
        "name_of_ppc": "Sathya Gnana Sabha",
        "pincode": 607303,
        "post_office": "Vadalur SO",
        "district": "Cuddalore",
        "collected": false
    },
    {
        "id": 316,
        "name_of_ppc": "Lord Nataraja",
        "pincode": 608001,
        "post_office": "Chidambaram HO",
        "district": "Cuddalore",
        "collected": false
    },
    {
        "id": 317,
        "name_of_ppc": "Pichavaram Mangrove Forest",
        "pincode": 608102,
        "post_office": "Killai SO",
        "district": "Cuddalore",
        "collected": false
    },
    {
        "id": 318,
        "name_of_ppc": "Thyagarajaswamy Temple Chariot",
        "pincode": 610001,
        "post_office": "Tiruvarur HO",
        "district": "Tiruvarur",
        "collected": false
    },
    {
        "id": 319,
        "name_of_ppc": "Dargah Sharif",
        "pincode": 611002,
        "post_office": "Nagore SO",
        "district": "Nagapattinam",
        "collected": false
    },
    {
        "id": 320,
        "name_of_ppc": "Shrine Basilica of Mother Mary",
        "pincode": 611111,
        "post_office": "Vailankanni SO",
        "district": "Nagapattinam",
        "collected": false
    },
    {
        "id": 321,
        "name_of_ppc": "Bull and Elephant Sculpture",
        "pincode": 612702,
        "post_office": "Darasuram SO",
        "district": "Thanjavur",
        "collected": false
    },
    {
        "id": 322,
        "name_of_ppc": "Great Nandi",
        "pincode": 612901,
        "post_office": "Gangaikondacholapuram SO",
        "district": "Ariyalur",
        "collected": false
    },
    {
        "id": 323,
        "name_of_ppc": "Brihadeeswara Swamy Temple",
        "pincode": 613001,
        "post_office": "Thanjavur HO",
        "district": "Thanjavur",
        "collected": false
    },
    {
        "id": 324,
        "name_of_ppc": "Saint Tyagaraja",
        "pincode": 613204,
        "post_office": "Thiruvaiyaru SO",
        "district": "Thanjavur",
        "collected": false
    },
    {
        "id": 325,
        "name_of_ppc": "Flamingo",
        "pincode": 614807,
        "post_office": "Kodikkarai SO",
        "district": "Nagapattinam",
        "collected": false
    },
    {
        "id": 326,
        "name_of_ppc": "Rock Fort",
        "pincode": 620001,
        "post_office": "Tiruchirappalli PB",
        "district": "Tiruchirappalli",
        "collected": false
    },
    {
        "id": 327,
        "name_of_ppc": "Adiseshan of Lord Ranganatha",
        "pincode": 620006,
        "post_office": "Srirangam HO",
        "district": "Tiruchirappalli",
        "collected": false
    },
    {
        "id": 328,
        "name_of_ppc": "Sri Ramanathaswamy Temple Corridor",
        "pincode": 623526,
        "post_office": "Rameswaram SO",
        "district": "Ramanathapuram",
        "collected": false
    },
    {
        "id": 329,
        "name_of_ppc": "Kodaikanal Observatory",
        "pincode": 624101,
        "post_office": "Kodaikanal SO",
        "district": "Dindigul",
        "collected": false
    },
    {
        "id": 330,
        "name_of_ppc": "Vel (Spear) and Peacock Feather of Lord Murugan",
        "pincode": 624601,
        "post_office": "Palani HO",
        "district": "Dindigul",
        "collected": false
    },
    {
        "id": 331,
        "name_of_ppc": "Flag of Pandya Dynasty with Aquarius Emblem",
        "pincode": 625001,
        "post_office": "Madurai HO",
        "district": "Madurai",
        "collected": false
    },
    {
        "id": 332,
        "name_of_ppc": "Meenakshi Amman Temple",
        "pincode": 625001,
        "post_office": "Madurai Bazaar SO",
        "district": "Madurai",
        "collected": false
    },
    {
        "id": 333,
        "name_of_ppc": "Lion Tailed Macaque",
        "pincode": 627501,
        "post_office": "Kalakad SO",
        "district": "Tirunelveli",
        "collected": false
    },
    {
        "id": 334,
        "name_of_ppc": "Courtallam Waterfalls",
        "pincode": 627802,
        "post_office": "Courtallam SO",
        "district": "Tenkasi",
        "collected": false
    },
    {
        "id": 335,
        "name_of_ppc": "Manapad Lighthouse",
        "pincode": 628209,
        "post_office": "Manapad SO",
        "district": "Thoothukudi",
        "collected": false
    },
    {
        "id": 336,
        "name_of_ppc": "Mahakavi Subramanya Bharatiyar Manimandapam",
        "pincode": 628902,
        "post_office": "Ettayapuram SO",
        "district": "Thoothukudi",
        "collected": false
    },
    {
        "id": 337,
        "name_of_ppc": "Mahakavi Subramanya Bharatiyar Manimandapam",
        "pincode": 628902,
        "post_office": "Ettayapuram SO",
        "district": "Thoothukudi",
        "collected": false
    },
    {
        "id": 338,
        "name_of_ppc": "Muttom Lighthouse",
        "pincode": 629202,
        "post_office": "Muttom SO",
        "district": "Kanniyakumari",
        "collected": false
    },
    {
        "id": 339,
        "name_of_ppc": "Vivekananda Rock Memorial",
        "pincode": 629702,
        "post_office": "Kanniyakumari SO",
        "district": "Kanniyakumari",
        "collected": false
    },
    {
        "id": 340,
        "name_of_ppc": "Chakravaha",
        "pincode": 631501,
        "post_office": "Kanchipuram HO",
        "district": "Kanchipuram",
        "collected": false
    },
    {
        "id": 341,
        "name_of_ppc": "Logo of CMC Hospital",
        "pincode": 632004,
        "post_office": "CMC Hospital, Vellore SO",
        "district": "Vellore",
        "collected": false
    },
    {
        "id": 342,
        "name_of_ppc": "Vellore Fort with Moat",
        "pincode": 632004,
        "post_office": "Vellore Fort SO",
        "district": "Vellore",
        "collected": false
    },
    {
        "id": 343,
        "name_of_ppc": "Vainu Bappu Observatory",
        "pincode": 635701,
        "post_office": "Kavalur BO",
        "district": "Tirupathur",
        "collected": false
    },
    {
        "id": 344,
        "name_of_ppc": "Gandhi Charkha and Bapu",
        "pincode": 636007,
        "post_office": "Hasthampatti SO",
        "district": "Salem",
        "collected": false
    },
    {
        "id": 345,
        "name_of_ppc": "Lord Ardhanareeswar",
        "pincode": 637211,
        "post_office": "Tiruchengodu HO",
        "district": "Namakkal",
        "collected": false
    },
    {
        "id": 346,
        "name_of_ppc": "Bhavani Koodal and Rajagopuram",
        "pincode": 638301,
        "post_office": "Bhavani HO",
        "district": "Erode",
        "collected": false
    },
    {
        "id": 347,
        "name_of_ppc": "Logo of Tamil Nadu Agricultural University",
        "pincode": 641003,
        "post_office": "TNAU-Lawley Road SO",
        "district": "Coimbatore",
        "collected": false
    },
    {
        "id": 348,
        "name_of_ppc": "Patteeswarar Temple",
        "pincode": 641010,
        "post_office": "Perur, Coimbatore SO",
        "district": "Coimbatore",
        "collected": false
    },
    {
        "id": 349,
        "name_of_ppc": "Salim Ali Centre fir Ornithology and Natural History (SACON)",
        "pincode": 641108,
        "post_office": "Anaikatti BO",
        "district": "Coimbatore",
        "collected": false
    },
    {
        "id": 350,
        "name_of_ppc": "Adi Yogi",
        "pincode": 641114,
        "post_office": "Ishana Vihar BO",
        "district": "Coimbatore",
        "collected": false
    },
    {
        "id": 351,
        "name_of_ppc": "Our Lady of Holy Rosary Shrine",
        "pincode": 641659,
        "post_office": "Karumathampatti SO",
        "district": "Coimbatore",
        "collected": false
    },
    {
        "id": 352,
        "name_of_ppc": "Nilgiri Tahr",
        "pincode": 642133,
        "post_office": "Top Slip BO",
        "district": "Coimbatore",
        "collected": false
    },
    {
        "id": 353,
        "name_of_ppc": "Toda Hut",
        "pincode": 643001,
        "post_office": "Udagamandalam HO",
        "district": "The Nilgiris",
        "collected": false
    },
    {
        "id": 354,
        "name_of_ppc": "Nilgiri Mountain Train",
        "pincode": 643102,
        "post_office": "Coonoor Railway Station SO",
        "district": "The Nilgiris",
        "collected": false
    },
    {
        "id": 355,
        "name_of_ppc": "Indian Bison (Gaur)",
        "pincode": 643211,
        "post_office": "Mudumalai Sanctuary BO",
        "district": "The Nilgiris",
        "collected": false
    },
    {
        "id": 358,
        "name_of_ppc": "Face of Theyyam",
        "pincode": 670001,
        "post_office": "Kannur HO",
        "district": "Kannur",
        "collected": false
    },
    {
        "id": 359,
        "name_of_ppc": "Muzhappilangad Beach",
        "pincode": 670662,
        "post_office": "Muzhappilangad SO",
        "district": "Kannur",
        "collected": false
    },
    {
        "id": 360,
        "name_of_ppc": "Madhur Ananteshwara Vinayaka Temple",
        "pincode": 671124,
        "post_office": "Madhur BO",
        "district": "Kasargod",
        "collected": false
    },
    {
        "id": 361,
        "name_of_ppc": "Bekal Fort",
        "pincode": 671316,
        "post_office": "Bekal Fort SO",
        "district": "Kasargod",
        "collected": false
    },
    {
        "id": 362,
        "name_of_ppc": "Mask of Theyyam",
        "pincode": 673001,
        "post_office": "Kozhikode (Calicut) HO",
        "district": "Kozhikode",
        "collected": false
    },
    {
        "id": 363,
        "name_of_ppc": "Uru or Fat Boat",
        "pincode": 673015,
        "post_office": "Beypore SO",
        "district": "Kozhikode",
        "collected": false
    },
    {
        "id": 364,
        "name_of_ppc": "Heron",
        "pincode": 673302,
        "post_office": "Kadalundi SO",
        "district": "Kozhikode",
        "collected": false
    },
    {
        "id": 365,
        "name_of_ppc": "Thunchath Ramanujam Ezhuthachan",
        "pincode": 676101,
        "post_office": "Tirur SO",
        "district": "Malappuram",
        "collected": false
    },
    {
        "id": 366,
        "name_of_ppc": "Mamankam",
        "pincode": 676301,
        "post_office": "Tirunavaya SO",
        "district": "Malappuram",
        "collected": false
    },
    {
        "id": 367,
        "name_of_ppc": "Vaidyaratnam P. S. Warrier",
        "pincode": 676503,
        "post_office": "Kottakkal SO",
        "district": "Malappuram",
        "collected": false
    },
    {
        "id": 368,
        "name_of_ppc": "Kalpathi Rathotsavam",
        "pincode": 678003,
        "post_office": "Kalpathi SO",
        "district": "Palakkad",
        "collected": false
    },
    {
        "id": 369,
        "name_of_ppc": "Chembai Vaidyanatha Bhagavathar",
        "pincode": 678572,
        "post_office": "Kottayi SO",
        "district": "Palakkad",
        "collected": false
    },
    {
        "id": 370,
        "name_of_ppc": "Lion Tailed Macaque",
        "pincode": 678581,
        "post_office": "Agali SO",
        "district": "Palakkad",
        "collected": false
    },
    {
        "id": 371,
        "name_of_ppc": "Malampuzha Dam and Rope Car",
        "pincode": 678651,
        "post_office": "Malampuzha Dam SO",
        "district": "Palakkad",
        "collected": false
    },
    {
        "id": 372,
        "name_of_ppc": "Indian Bison (Gaur)",
        "pincode": 678661,
        "post_office": "Parambikulam SO",
        "district": "Palakkad",
        "collected": false
    },
    {
        "id": 373,
        "name_of_ppc": "Head Gear of Ottanthullal",
        "pincode": 679301,
        "post_office": "Lakkidi SO",
        "district": "Palakkad",
        "collected": false
    },
    {
        "id": 374,
        "name_of_ppc": "Vesham in Kathakali",
        "pincode": 679531,
        "post_office": "Cheruthuruthy SO",
        "district": "Thrissur",
        "collected": false
    },
    {
        "id": 375,
        "name_of_ppc": "Thrissur Pooram Festival Elephant",
        "pincode": 680001,
        "post_office": "Thrissur HO",
        "district": "Thrissur",
        "collected": false
    },
    {
        "id": 376,
        "name_of_ppc": "Bell and Flag Mast in Guruvayur Sri Krishna Temple",
        "pincode": 680101,
        "post_office": "Guruvayur SO",
        "district": "Thrissur",
        "collected": false
    },
    {
        "id": 377,
        "name_of_ppc": "Shrine of St. Joseph Church",
        "pincode": 680507,
        "post_office": "Pavaratty SO",
        "district": "Thrissur",
        "collected": false
    },
    {
        "id": 378,
        "name_of_ppc": "Shrine of Our Lady of Perpetual Help",
        "pincode": 680602,
        "post_office": "Mattom SO",
        "district": "Thrissur",
        "collected": false
    },
    {
        "id": 379,
        "name_of_ppc": "Lighted Candles in Holy Cross Church, Mapranam",
        "pincode": 680712,
        "post_office": "Madayikonam SO",
        "district": "Thrissur",
        "collected": false
    },
    {
        "id": 380,
        "name_of_ppc": "Chinese Fishing Net",
        "pincode": 682001,
        "post_office": "Kochi HO",
        "district": "Ernakulam",
        "collected": false
    },
    {
        "id": 381,
        "name_of_ppc": "Magen David of Cochin Synagogue",
        "pincode": 682002,
        "post_office": "Mattancherry Jetty SO",
        "district": "Ernakulam",
        "collected": false
    },
    {
        "id": 382,
        "name_of_ppc": "Thookkuvilakku",
        "pincode": 682011,
        "post_office": "Ernakulam HO-PB",
        "district": "Ernakulam",
        "collected": false
    },
    {
        "id": 383,
        "name_of_ppc": "Adi Sankaracharya",
        "pincode": 683574,
        "post_office": "Kalady SO",
        "district": "Ernakulam",
        "collected": false
    },
    {
        "id": 384,
        "name_of_ppc": "St. Thomas Church",
        "pincode": 683587,
        "post_office": "Malayattoor SO",
        "district": "Ernakulam",
        "collected": false
    },
    {
        "id": 385,
        "name_of_ppc": "Thekkady Wildlife-Asian Elephant",
        "pincode": 685509,
        "post_office": "Kumily SO",
        "district": "Idukki",
        "collected": false
    },
    {
        "id": 386,
        "name_of_ppc": "Nilgiri Tahr",
        "pincode": 685612,
        "post_office": "Munnar SO",
        "district": "Idukki",
        "collected": false
    },
    {
        "id": 387,
        "name_of_ppc": "Saint Alphonsa",
        "pincode": 686578,
        "post_office": "Bharananganam BO",
        "district": "Kottayam",
        "collected": false
    },
    {
        "id": 388,
        "name_of_ppc": "Alappuzha Boat Race",
        "pincode": 688001,
        "post_office": "Alappuzha HO",
        "district": "Alappuzha",
        "collected": false
    },
    {
        "id": 389,
        "name_of_ppc": "Aranmula Boat Race",
        "pincode": 689533,
        "post_office": "Aranmula SO",
        "district": "Pathanamthitta",
        "collected": false
    },
    {
        "id": 390,
        "name_of_ppc": "Pathinettampadi (Holy Eighteen Steps)",
        "pincode": 689713,
        "post_office": "Sabarimalai SO",
        "district": "Pathanamthitta",
        "collected": false
    },
    {
        "id": 391,
        "name_of_ppc": "Pathinettampadi (Holy Eighteen Steps)",
        "pincode": 689713,
        "post_office": "Sabarimalai SO",
        "district": "Pathanamthitta",
        "collected": false
    },
    {
        "id": 392,
        "name_of_ppc": "Logo of Mata Amritanandamayi Math",
        "pincode": 690546,
        "post_office": "Amrithapuri SO",
        "district": "Kollam",
        "collected": false
    },
    {
        "id": 393,
        "name_of_ppc": "Face Mask of Kathakali",
        "pincode": 695001,
        "post_office": "Thiruvananthapuram GPO-PB",
        "district": "Thiruvananthapuram",
        "collected": false
    },
    {
        "id": 394,
        "name_of_ppc": "Rocket and Coconut Tree",
        "pincode": 695022,
        "post_office": "Thiruvananthapuram ISRO SO",
        "district": "Thiruvananthapuram",
        "collected": false
    },
    {
        "id": 395,
        "name_of_ppc": "Statue of Sri Narayana Guru",
        "pincode": 695141,
        "post_office": "Varkala SO",
        "district": "Thiruvananthapuram",
        "collected": false
    },
    {
        "id": 396,
        "name_of_ppc": "Beach, Coconut Trees, and Waves",
        "pincode": 695527,
        "post_office": "Kovalam BO",
        "district": "Thiruvananthapuram",
        "collected": false
    },
    {
        "id": 397,
        "name_of_ppc": "Ponmudi Hill Resort",
        "pincode": 695551,
        "post_office": "Ponmudi BO",
        "district": "Thiruvananthapuram",
        "collected": false
    },
    {
        "id": 398,
        "name_of_ppc": "Victoria Memorial Hall",
        "pincode": 700001,
        "post_office": "Kolkata GPO",
        "district": "Kolkata",
        "collected": false
    },
    {
        "id": 399,
        "name_of_ppc": "Victoria Memorial Hall",
        "pincode": 700001,
        "post_office": "Kolkata GPO",
        "district": "Kolkata",
        "collected": false
    },
    {
        "id": 400,
        "name_of_ppc": "Victoria Memorial Hall",
        "pincode": 700001,
        "post_office": "Kolkata GPO",
        "district": "Kolkata",
        "collected": false
    },
    {
        "id": 401,
        "name_of_ppc": "Victoria Memorial Hall",
        "pincode": 700001,
        "post_office": "Kolkata GPO",
        "district": "Kolkata",
        "collected": false
    },
    {
        "id": 402,
        "name_of_ppc": "Victoria Memorial Hall",
        "pincode": 700001,
        "post_office": "Kolkata GPO",
        "district": "Kolkata",
        "collected": false
    },
    {
        "id": 403,
        "name_of_ppc": "Victoria Memorial Hall",
        "pincode": 700001,
        "post_office": "Kolkata GPO",
        "district": "Kolkata",
        "collected": false
    },
    {
        "id": 404,
        "name_of_ppc": "Victoria Memorial Hall",
        "pincode": 700001,
        "post_office": "Kolkata GPO",
        "district": "Kolkata",
        "collected": false
    },
    {
        "id": 405,
        "name_of_ppc": "Victoria Memorial Hall",
        "pincode": 700001,
        "post_office": "Kolkata GPO",
        "district": "Kolkata",
        "collected": false
    },
    {
        "id": 406,
        "name_of_ppc": "Victoria Memorial Hall",
        "pincode": 700001,
        "post_office": "Kolkata GPO",
        "district": "Kolkata",
        "collected": false
    },
    {
        "id": 407,
        "name_of_ppc": "Belur Math",
        "pincode": 711202,
        "post_office": "Belur Math SO",
        "district": "Howrah",
        "collected": false
    },
    {
        "id": 408,
        "name_of_ppc": "Shuttlecock",
        "pincode": 711316,
        "post_office": "Jaduberia BO",
        "district": "Howrah",
        "collected": false
    },
    {
        "id": 409,
        "name_of_ppc": "Rathyatra Mahesh",
        "pincode": 712202,
        "post_office": "Mahesh-1 SO",
        "district": "Hooghly",
        "collected": false
    },
    {
        "id": 410,
        "name_of_ppc": "Khejuri Branch Post Office",
        "pincode": 721431,
        "post_office": "Khejuri BO",
        "district": "Purba Medinpur",
        "collected": false
    },
    {
        "id": 411,
        "name_of_ppc": "Rajbari Jhargram Palace",
        "pincode": 721507,
        "post_office": "Jhargram HO",
        "district": "Jhargram",
        "collected": false
    },
    {
        "id": 412,
        "name_of_ppc": "Tamralipta Rajbari",
        "pincode": 721636,
        "post_office": "Tamluk HO",
        "district": "Purba Medinpur",
        "collected": false
    },
    {
        "id": 413,
        "name_of_ppc": "Bishnupur Mukhya Dakghar",
        "pincode": 722122,
        "post_office": "Bishnupur SO",
        "district": "Bankura",
        "collected": false
    },
    {
        "id": 414,
        "name_of_ppc": "Bishnupur Mukhya Dakghar",
        "pincode": 722122,
        "post_office": "Bishnupur SO",
        "district": "Bankura",
        "collected": false
    },
    {
        "id": 415,
        "name_of_ppc": "Singha Sadan",
        "pincode": 731235,
        "post_office": "Santiniketan SO",
        "district": "Birbhum",
        "collected": false
    },
    {
        "id": 416,
        "name_of_ppc": "Sevoke Coronation Bridge",
        "pincode": 734001,
        "post_office": "Siliguri HO",
        "district": "Darjeeling",
        "collected": false
    },
    {
        "id": 417,
        "name_of_ppc": "Tea-Elixir of Life",
        "pincode": 734101,
        "post_office": "Darjeeling HO",
        "district": "Darjeeling",
        "collected": false
    },
    {
        "id": 418,
        "name_of_ppc": "Unicorns of Dooars",
        "pincode": 735221,
        "post_office": "Mal HO",
        "district": "Jalpaiguri",
        "collected": false
    },
    {
        "id": 419,
        "name_of_ppc": "Cooch Behar Palace",
        "pincode": 736101,
        "post_office": "Cooch Behar HO",
        "district": "Cooch Behar",
        "collected": false
    },
    {
        "id": 420,
        "name_of_ppc": "Dooars Tusker",
        "pincode": 736121,
        "post_office": "Alipurduar SO",
        "district": "Alipurduar",
        "collected": false
    },
    {
        "id": 421,
        "name_of_ppc": "Red Panda-State Animal of Sikkim",
        "pincode": 737101,
        "post_office": "Gangtok HO",
        "district": "Gangtok",
        "collected": false
    },
    {
        "id": 422,
        "name_of_ppc": "Cellular Jail",
        "pincode": 744101,
        "post_office": "Port Blair HO",
        "district": "South Andamans",
        "collected": false
    },
    {
        "id": 423,
        "name_of_ppc": "Khandagiri Udayagiri Caves, Dhauligiri Stupa & Lingraj Temple",
        "pincode": 751001,
        "post_office": "Bhubaneshwar GPO-PB",
        "district": "Khordha",
        "collected": false
    },
    {
        "id": 424,
        "name_of_ppc": "Khandagiri Caves and Elephant Sculpture",
        "pincode": 751030,
        "post_office": "Khandagiri SO",
        "district": "Khordha",
        "collected": false
    },
    {
        "id": 425,
        "name_of_ppc": "Sri Jagannath Temple and Sea Wave",
        "pincode": 752001,
        "post_office": "Puri HO",
        "district": "Puri",
        "collected": false
    },
    {
        "id": 426,
        "name_of_ppc": "Stone Chariot Wheel of the Surya Temple",
        "pincode": 752111,
        "post_office": "Konark SO",
        "district": "Puri",
        "collected": false
    },
    {
        "id": 427,
        "name_of_ppc": "Odissi Dance and Barabati Fort",
        "pincode": 753001,
        "post_office": "Cuttack GPO-PB",
        "district": "Cuttack",
        "collected": false
    },
    {
        "id": 428,
        "name_of_ppc": "Maa Samaleswari Temple and Musical Instruments",
        "pincode": 768001,
        "post_office": "Sambalpur HO-PB",
        "district": "Sambalpur",
        "collected": false
    },
    {
        "id": 429,
        "name_of_ppc": "Sri Kamakhya Devi Temple",
        "pincode": 781001,
        "post_office": "Guwahati GPO",
        "district": "Kamrup Metropolitan",
        "collected": false
    },
    {
        "id": 430,
        "name_of_ppc": "One Horned Rhino",
        "pincode": 785609,
        "post_office": "Kaziranga National Park SO",
        "district": "Golaghat",
        "collected": false
    },
    {
        "id": 431,
        "name_of_ppc": "Rang Ghar",
        "pincode": 785640,
        "post_office": "Sivasagar HO",
        "district": "Sivasagar",
        "collected": false
    },
    {
        "id": 432,
        "name_of_ppc": "Shillong Golf Course",
        "pincode": 793001,
        "post_office": "Shillong GPO",
        "district": "East Khasi Hills",
        "collected": false
    },
    {
        "id": 433,
        "name_of_ppc": "Kiang Nangbah Monument",
        "pincode": 793150,
        "post_office": "Jowai SO",
        "district": "West Jaintia Hills",
        "collected": false
    },
    {
        "id": 434,
        "name_of_ppc": "Sangai Deer",
        "pincode": 795001,
        "post_office": "Imphal HO",
        "district": "Imphal West",
        "collected": false
    },
    {
        "id": 435,
        "name_of_ppc": "Sangai Deer",
        "pincode": 795133,
        "post_office": "Moirang SO",
        "district": "Bishnupur",
        "collected": false
    },
    {
        "id": 436,
        "name_of_ppc": "Horn and Pipe",
        "pincode": 796001,
        "post_office": "Aizawl HO",
        "district": "Aizawl",
        "collected": false
    },
    {
        "id": 437,
        "name_of_ppc": "Trimurti Rock Sculpture",
        "pincode": 799282,
        "post_office": "Bhagabannagar BO",
        "district": "North Tripura",
        "collected": false
    },
    {
        "id": 438,
        "name_of_ppc": "Patna GPO Building",
        "pincode": 800001,
        "post_office": "Patna GPO",
        "district": "Patna",
        "collected": false
    },
    {
        "id": 439,
        "name_of_ppc": "Patna GPO Building",
        "pincode": 800001,
        "post_office": "Patna GPO",
        "district": "Patna",
        "collected": false
    },
    {
        "id": 440,
        "name_of_ppc": "Patna GPO Building",
        "pincode": 800001,
        "post_office": "Patna GPO",
        "district": "Patna",
        "collected": false
    },
    {
        "id": 441,
        "name_of_ppc": "Takhat Sri Harmandir Sahib Ji, Patna Sahib",
        "pincode": 800008,
        "post_office": "Patna City SO",
        "district": "Patna",
        "collected": false
    },
    {
        "id": 442,
        "name_of_ppc": "Nalanda Ruins",
        "pincode": 801303,
        "post_office": "Nalanda SO",
        "district": "Nalanda",
        "collected": false
    },
    {
        "id": 443,
        "name_of_ppc": "Nagi Dam Bird Sanctuary",
        "pincode": 811308,
        "post_office": "Jhajha SO",
        "district": "Jamui",
        "collected": false
    },
    {
        "id": 451,
        "name_of_ppc": "Baidyanath Temple",
        "pincode": 814112,
        "post_office": "Deoghar HO",
        "district": "Deoghar",
        "collected": false
    },
    {
        "id": 452,
        "name_of_ppc": "Basukinath Temple",
        "pincode": 814118,
        "post_office": "Basukinath Dham SO",
        "district": "Dumka",
        "collected": false
    },
    {
        "id": 444,
        "name_of_ppc": "Sher Shah Suri Tomb",
        "pincode": 821115,
        "post_office": "Sasaram HO",
        "district": "Rohtas",
        "collected": false
    },
    {
        "id": 453,
        "name_of_ppc": "Tiger Reserve",
        "pincode": 822101,
        "post_office": "Daltonganj HO",
        "district": "Palamu",
        "collected": false
    },
    {
        "id": 445,
        "name_of_ppc": "Deo Sun Temple",
        "pincode": 824202,
        "post_office": "Deo SO",
        "district": "Aurangabad",
        "collected": false
    },
    {
        "id": 446,
        "name_of_ppc": "Mahabodhi Temple",
        "pincode": 824231,
        "post_office": "Bodhgaya SO",
        "district": "Gaya",
        "collected": false
    },
    {
        "id": 454,
        "name_of_ppc": "Parasnath Temple",
        "pincode": 825329,
        "post_office": "Shikherjee SO",
        "district": "Giridih",
        "collected": false
    },
    {
        "id": 455,
        "name_of_ppc": "Chhinnamastika Temple",
        "pincode": 829150,
        "post_office": "Rajrappa Project SO",
        "district": "Ramgarh",
        "collected": false
    },
    {
        "id": 456,
        "name_of_ppc": "Jamshedji Nusserwanji Tata & Steel City",
        "pincode": 831001,
        "post_office": "Jamshedpur HO",
        "district": "Purbi Singhbhum",
        "collected": false
    },
    {
        "id": 457,
        "name_of_ppc": "Chhau Dance",
        "pincode": 833219,
        "post_office": "Saraikela SO",
        "district": "Seraikela-Kharsawan",
        "collected": false
    },
    {
        "id": 458,
        "name_of_ppc": "Queen of Chhotanagpur",
        "pincode": 835218,
        "post_office": "Netarhat SO",
        "district": "Latehar",
        "collected": false
    },
    {
        "id": 447,
        "name_of_ppc": "Ashokan Pillar",
        "pincode": 843101,
        "post_office": "Bakhra SO",
        "district": "Muzaffarpur",
        "collected": false
    },
    {
        "id": 448,
        "name_of_ppc": "Valmiki Tiger Reserve",
        "pincode": 845107,
        "post_office": "Valmiki Nagar SO",
        "district": "West Champaran",
        "collected": false
    },
    {
        "id": 449,
        "name_of_ppc": "Postal Training Centre, Darbhanga",
        "pincode": 846005,
        "post_office": "Postal Training Centre SO",
        "district": "Darbhanga",
        "collected": false
    },
    {
        "id": 450,
        "name_of_ppc": "Mahakavi Vidyapati",
        "pincode": 847122,
        "post_office": "Bisfi SO",
        "district": "Madhubani",
        "collected": false
    }
]